SL-4 R/B                
1 39679U 14021B   26045.11866290  .00012353  00000+0  28089-3 0  9995
2 39679  51.6069  92.1964 0098886  17.0770 343.3503 15.38391546652644
ALOS-2                  
1 39766U 14029A   26044.70919813  .00001207  00000+0  16854-3 0  9997
2 39766  97.9208 143.6524 0001613 106.0263 254.1126 14.79453311633328
YAOGAN-29               
1 41038U 15069A   26045.24647269  .00001012  00000+0  13133-3 0  9991
2 41038  98.0177  73.6114 0002890  75.8491 284.3044 14.82970509552401
ASTRO-H (HITOMI)        
1 41337U 16012A   26045.29847479  .00003704  00000+0  21759-3 0  9995
2 41337  30.9986 147.4742 0009808  97.5713 262.6040 15.09833481548695
HXMT (HUIYAN)           
1 42758U 17034A   26045.27647155  .00007262  00000+0  36662-3 0  9997
2 42758  43.0137 146.8087 0030619  86.3991 274.0358 15.17156597478987
CZ-2C R/B               
1 43521U 18054D   26045.25521915  .00469321  95095-4  81573-3 0  9994
2 43521  35.1278 103.6795 0011837  80.5555 279.6524 16.01021593425130
SAOCOM 1A               
1 43641U 18076A   26045.26680418 -.00000213  00000+0 -20259-4 0  9991
2 43641  97.8874 233.7705 0001333  81.6433 278.4931 14.82138970397898
H-2A R/B                
1 43682U 18084L   26045.15887016  .00019794  00000+0  48731-3 0  9992
2 43682  98.8757 257.5360 0026373 104.2332 256.1841 15.40301347402150
SAOCOM 1B               
1 46265U 20059A   26045.29807076  .00000443  00000+0  62194-4 0  9991
2 46265  97.8874 232.8994 0001502  84.8722 275.2663 14.82145675295284
CSS (TIANHE)            
1 48274U 21035A   26045.22255719  .00017014  00000+0  21136-3 0  9994
2 48274  41.4681 350.8379 0004138  88.4317 271.6995 15.59592517273946
COSMOS 2550             
1 48865U 21056A   26043.67324435 -.00000047  00000+0  44074-5 0  9999
2 48865  67.1431 116.6034 0008311 269.5097  90.5105 15.33832120259629
CZ-2C R/B               
1 52794U 22058K   26045.28970958  .00033627  00000+0  52258-3 0  9994
2 52794  50.1883  78.5027 0042150 101.2724 259.2988 15.52557956206496
