CCSDS_OMM_VERS = 2.0
CREATION_DATE  = 
ORIGINATOR     = 

OBJECT_NAME    = SL-4 R/B
OBJECT_ID      = 2014-021B
CENTER_NAME    = EARTH
REF_FRAME      = TEME
TIME_SYSTEM    = UTC
MEAN_ELEMENT_THEORY = SGP/SGP4

EPOCH          = 2026-02-14T02:50:52.474560
MEAN_MOTION    = 15.38391546
ECCENTRICITY   = .00988867
INCLINATION    = 51.6069
RA_OF_ASC_NODE = 92.1964
ARG_OF_PERICENTER = 17.0770
MEAN_ANOMALY   = 343.3503

EPHEMERIS_TYPE = 0
CLASSIFICATION_TYPE = U
NORAD_CAT_ID   = 39679
ELEMENT_SET_NO = 999
REV_AT_EPOCH   = 65264
BSTAR          = .28089075E-3
MEAN_MOTION_DOT = .12353E-3
MEAN_MOTION_DDOT = 0

CCSDS_OMM_VERS = 2.0
CREATION_DATE  = 
ORIGINATOR     = 

OBJECT_NAME    = ALOS-2
OBJECT_ID      = 2014-029A
CENTER_NAME    = EARTH
REF_FRAME      = TEME
TIME_SYSTEM    = UTC
MEAN_ELEMENT_THEORY = SGP/SGP4

EPOCH          = 2026-02-13T17:01:14.718432
MEAN_MOTION    = 14.79453311
ECCENTRICITY   = .00016135
INCLINATION    = 97.9208
RA_OF_ASC_NODE = 143.6524
ARG_OF_PERICENTER = 106.0263
MEAN_ANOMALY   = 254.1126

EPHEMERIS_TYPE = 0
CLASSIFICATION_TYPE = U
NORAD_CAT_ID   = 39766
ELEMENT_SET_NO = 999
REV_AT_EPOCH   = 63332
BSTAR          = .16854191E-3
MEAN_MOTION_DOT = .1207E-4
MEAN_MOTION_DDOT = 0

CCSDS_OMM_VERS = 2.0
CREATION_DATE  = 
ORIGINATOR     = 

OBJECT_NAME    = YAOGAN-29
OBJECT_ID      = 2015-069A
CENTER_NAME    = EARTH
REF_FRAME      = TEME
TIME_SYSTEM    = UTC
MEAN_ELEMENT_THEORY = SGP/SGP4

EPOCH          = 2026-02-14T05:54:55.240416
MEAN_MOTION    = 14.82970509
ECCENTRICITY   = .00028908
INCLINATION    = 98.0177
RA_OF_ASC_NODE = 73.6114
ARG_OF_PERICENTER = 75.8491
MEAN_ANOMALY   = 284.3044

EPHEMERIS_TYPE = 0
CLASSIFICATION_TYPE = U
NORAD_CAT_ID   = 41038
ELEMENT_SET_NO = 999
REV_AT_EPOCH   = 55240
BSTAR          = .13132632E-3
MEAN_MOTION_DOT = .1012E-4
MEAN_MOTION_DDOT = 0

CCSDS_OMM_VERS = 2.0
CREATION_DATE  = 
ORIGINATOR     = 

OBJECT_NAME    = ASTRO-H (HITOMI)
OBJECT_ID      = 2016-012A
CENTER_NAME    = EARTH
REF_FRAME      = TEME
TIME_SYSTEM    = UTC
MEAN_ELEMENT_THEORY = SGP/SGP4

EPOCH          = 2026-02-14T07:09:48.221856
MEAN_MOTION    = 15.09833481
ECCENTRICITY   = .00098084
INCLINATION    = 30.9986
RA_OF_ASC_NODE = 147.4742
ARG_OF_PERICENTER = 97.5713
MEAN_ANOMALY   = 262.6040

EPHEMERIS_TYPE = 0
CLASSIFICATION_TYPE = U
NORAD_CAT_ID   = 41337
ELEMENT_SET_NO = 999
REV_AT_EPOCH   = 54869
BSTAR          = .21758675E-3
MEAN_MOTION_DOT = .3704E-4
MEAN_MOTION_DDOT = 0

CCSDS_OMM_VERS = 2.0
CREATION_DATE  = 
ORIGINATOR     = 

OBJECT_NAME    = HXMT (HUIYAN)
OBJECT_ID      = 2017-034A
CENTER_NAME    = EARTH
REF_FRAME      = TEME
TIME_SYSTEM    = UTC
MEAN_ELEMENT_THEORY = SGP/SGP4

EPOCH          = 2026-02-14T06:38:07.141920
MEAN_MOTION    = 15.17156597
ECCENTRICITY   = .00306198
INCLINATION    = 43.0137
RA_OF_ASC_NODE = 146.8087
ARG_OF_PERICENTER = 86.3991
MEAN_ANOMALY   = 274.0358

EPHEMERIS_TYPE = 0
CLASSIFICATION_TYPE = U
NORAD_CAT_ID   = 42758
ELEMENT_SET_NO = 999
REV_AT_EPOCH   = 47898
BSTAR          = .3666238E-3
MEAN_MOTION_DOT = .7262E-4
MEAN_MOTION_DDOT = 0

CCSDS_OMM_VERS = 2.0
CREATION_DATE  = 
ORIGINATOR     = 

OBJECT_NAME    = CZ-2C R/B
OBJECT_ID      = 2018-054D
CENTER_NAME    = EARTH
REF_FRAME      = TEME
TIME_SYSTEM    = UTC
MEAN_ELEMENT_THEORY = SGP/SGP4

EPOCH          = 2026-02-14T06:07:30.934560
MEAN_MOTION    = 16.01021593
ECCENTRICITY   = .00118376
INCLINATION    = 35.1278
RA_OF_ASC_NODE = 103.6795
ARG_OF_PERICENTER = 80.5555
MEAN_ANOMALY   = 279.6524

EPHEMERIS_TYPE = 0
CLASSIFICATION_TYPE = U
NORAD_CAT_ID   = 43521
ELEMENT_SET_NO = 999
REV_AT_EPOCH   = 42513
BSTAR          = .81572794E-3
MEAN_MOTION_DOT = .469321E-2
MEAN_MOTION_DDOT = .95094773E-4

CCSDS_OMM_VERS = 2.0
CREATION_DATE  = 
ORIGINATOR     = 

OBJECT_NAME    = SAOCOM 1A
OBJECT_ID      = 2018-076A
CENTER_NAME    = EARTH
REF_FRAME      = TEME
TIME_SYSTEM    = UTC
MEAN_ELEMENT_THEORY = SGP/SGP4

EPOCH          = 2026-02-14T06:24:11.881152
MEAN_MOTION    = 14.82138970
ECCENTRICITY   = .00013333
INCLINATION    = 97.8874
RA_OF_ASC_NODE = 233.7705
ARG_OF_PERICENTER = 81.6433
MEAN_ANOMALY   = 278.4931

EPHEMERIS_TYPE = 0
CLASSIFICATION_TYPE = U
NORAD_CAT_ID   = 43641
ELEMENT_SET_NO = 999
REV_AT_EPOCH   = 39789
BSTAR          = -.20258719E-4
MEAN_MOTION_DOT = -.213E-5
MEAN_MOTION_DDOT = 0

CCSDS_OMM_VERS = 2.0
CREATION_DATE  = 
ORIGINATOR     = 

OBJECT_NAME    = H-2A R/B
OBJECT_ID      = 2018-084L
CENTER_NAME    = EARTH
REF_FRAME      = TEME
TIME_SYSTEM    = UTC
MEAN_ELEMENT_THEORY = SGP/SGP4

EPOCH          = 2026-02-14T03:48:46.381824
MEAN_MOTION    = 15.40301347
ECCENTRICITY   = .00263732
INCLINATION    = 98.8757
RA_OF_ASC_NODE = 257.5360
ARG_OF_PERICENTER = 104.2332
MEAN_ANOMALY   = 256.1841

EPHEMERIS_TYPE = 0
CLASSIFICATION_TYPE = U
NORAD_CAT_ID   = 43682
ELEMENT_SET_NO = 999
REV_AT_EPOCH   = 40215
BSTAR          = .48730939E-3
MEAN_MOTION_DOT = .19794E-3
MEAN_MOTION_DDOT = 0

CCSDS_OMM_VERS = 2.0
CREATION_DATE  = 
ORIGINATOR     = 

OBJECT_NAME    = SAOCOM 1B
OBJECT_ID      = 2020-059A
CENTER_NAME    = EARTH
REF_FRAME      = TEME
TIME_SYSTEM    = UTC
MEAN_ELEMENT_THEORY = SGP/SGP4

EPOCH          = 2026-02-14T07:09:13.313664
MEAN_MOTION    = 14.82145675
ECCENTRICITY   = .00015025
INCLINATION    = 97.8874
RA_OF_ASC_NODE = 232.8994
ARG_OF_PERICENTER = 84.8722
MEAN_ANOMALY   = 275.2663

EPHEMERIS_TYPE = 0
CLASSIFICATION_TYPE = U
NORAD_CAT_ID   = 46265
ELEMENT_SET_NO = 999
REV_AT_EPOCH   = 29528
BSTAR          = .62193862E-4
MEAN_MOTION_DOT = .443E-5
MEAN_MOTION_DDOT = 0

CCSDS_OMM_VERS = 2.0
CREATION_DATE  = 
ORIGINATOR     = 

OBJECT_NAME    = CSS (TIANHE)
OBJECT_ID      = 2021-035A
CENTER_NAME    = EARTH
REF_FRAME      = TEME
TIME_SYSTEM    = UTC
MEAN_ELEMENT_THEORY = SGP/SGP4

EPOCH          = 2026-02-14T05:20:28.941216
MEAN_MOTION    = 15.59592517
ECCENTRICITY   = .00041385
INCLINATION    = 41.4681
RA_OF_ASC_NODE = 350.8379
ARG_OF_PERICENTER = 88.4317
MEAN_ANOMALY   = 271.6995

EPHEMERIS_TYPE = 0
CLASSIFICATION_TYPE = U
NORAD_CAT_ID   = 48274
ELEMENT_SET_NO = 999
REV_AT_EPOCH   = 27394
BSTAR          = .21135878E-3
MEAN_MOTION_DOT = .17014E-3
MEAN_MOTION_DDOT = 0

CCSDS_OMM_VERS = 2.0
CREATION_DATE  = 
ORIGINATOR     = 

OBJECT_NAME    = COSMOS 2550
OBJECT_ID      = 2021-056A
CENTER_NAME    = EARTH
REF_FRAME      = TEME
TIME_SYSTEM    = UTC
MEAN_ELEMENT_THEORY = SGP/SGP4

EPOCH          = 2026-02-12T16:09:28.311840
MEAN_MOTION    = 15.33832120
ECCENTRICITY   = .00083114
INCLINATION    = 67.1431
RA_OF_ASC_NODE = 116.6034
ARG_OF_PERICENTER = 269.5097
MEAN_ANOMALY   = 90.5105

EPHEMERIS_TYPE = 0
CLASSIFICATION_TYPE = U
NORAD_CAT_ID   = 48865
ELEMENT_SET_NO = 999
REV_AT_EPOCH   = 25962
BSTAR          = .4407408E-5
MEAN_MOTION_DOT = -.47E-6
MEAN_MOTION_DDOT = 0

CCSDS_OMM_VERS = 2.0
CREATION_DATE  = 
ORIGINATOR     = 

OBJECT_NAME    = CZ-2C R/B
OBJECT_ID      = 2022-058K
CENTER_NAME    = EARTH
REF_FRAME      = TEME
TIME_SYSTEM    = UTC
MEAN_ELEMENT_THEORY = SGP/SGP4

EPOCH          = 2026-02-14T06:57:10.907712
MEAN_MOTION    = 15.52557956
ECCENTRICITY   = .00421503
INCLINATION    = 50.1883
RA_OF_ASC_NODE = 78.5027
ARG_OF_PERICENTER = 101.2724
MEAN_ANOMALY   = 259.2988

EPHEMERIS_TYPE = 0
CLASSIFICATION_TYPE = U
NORAD_CAT_ID   = 52794
ELEMENT_SET_NO = 999
REV_AT_EPOCH   = 20649
BSTAR          = .52257578E-3
MEAN_MOTION_DOT = .33627E-3
MEAN_MOTION_DDOT = 0

